ONEWEB-0578             
1 56067U 23043X   24317.52808531  .00000217  00000+0  49451-3 0  9990
2 56067  87.9325 359.8401 0001816  99.9816 260.1523 13.21824984 81390
ONEWEB-0579             
1 56068U 23043Y   24317.51860959  .00000089  00000+0  18335-3 0  9996
2 56068  87.9323 359.8348 0002146  89.4939 270.6441 13.21827830 81406
ONEWEB-0581             
1 56069U 23043Z   24317.54553260  .00000072  00000+0  15480-3 0  9994
2 56069  87.9101 344.6725 0002380  99.3959 260.7441 13.16596754 82429
ONEWEB-0613             
1 56071U 23043AB  24317.56860640 -.00000040  00000+0 -14044-3 0  9994
2 56071  87.9113  14.9992 0002039  90.0784 270.0580 13.15551499 79962
ONEWEB-0630             
1 56072U 23043AC  24317.56386127 -.00000014  00000+0 -70625-4 0  9997
2 56072  87.9107  14.9860 0001887  88.2203 271.9144 13.15550023 79952
ONEWEB-0632             
1 56073U 23043AD  24317.55910297  .00000114  00000+0  26776-3 0  9994
2 56073  87.9111  15.0062 0002179 100.4296 259.7080 13.15551895 79959
ONEWEB-0633             
1 56074U 23043AE  24317.55276981  .00000078  00000+0  17385-3 0  9995
2 56074  87.9107  14.9835 0001786  82.5557 277.5776 13.15547340 79932
